start=new Date('2023-04-18T00:00:00.000Z').valueOf();
sats=[{"OBJECT_TYPE":"PAYLOAD","SITE":"AFETR","NORAD_CAT_ID":"54085","REF_FRAME":"TEME","OBJECT_NAME":"STARLINK-5166","GP_ID":"230237561","FILE":"3889215","DECAY_DATE":null,"RA_OF_ASC_NODE":"41.2541","BSTAR":"0.00047449000000","OBJECT_ID":"2022-136AL","MEAN_ELEMENT_THEORY":"SGP4","TIME_SYSTEM":"UTC","COUNTRY_CODE":"US","ECCENTRICITY":"0.00013450","PERIAPSIS":"538.775","MEAN_ANOMALY":"282.7379","CLASSIFICATION_TYPE":"U","ELEMENT_SET_NO":"999","SEMIMAJOR_AXIS":"6917.840","EPHEMERIS_TYPE":"0","MEAN_MOTION_DDOT":"0.0000000000000","EPOCH":"2023-04-17T05:35:21.253632","LAUNCH_DATE":"2022-10-20","INCLINATION":"53.2192","REV_AT_EPOCH":"2734","ARG_OF_PERICENTER":"77.3763","RCS_SIZE":"LARGE","PERIOD":"95.437","TLE_LINE1":"1 54085U 22136AL  23107.23288488  .00007274  00000-0  47449-3 0  9993","MEAN_MOTION_DOT":"0.00007274","TLE_LINE2":"2 54085  53.2192  41.2541 0001345  77.3763 282.7379 15.08853095 27347","APOAPSIS":"540.636","MEAN_MOTION":"15.08853095","CENTER_NAME":"EARTH"},{"BSTAR":"0.00008720500000","OBJECT_ID":"2022-136AM","MEAN_ELEMENT_THEORY":"SGP4","COUNTRY_CODE":"US","TIME_SYSTEM":"UTC","ECCENTRICITY":"0.00012790","PERIAPSIS":"538.829","MEAN_ANOMALY":"251.1437","OBJECT_TYPE":"PAYLOAD","SITE":"AFETR","NORAD_CAT_ID":"54086","REF_FRAME":"TEME","OBJECT_NAME":"STARLINK-5211","FILE":"3889215","GP_ID":"230235827","RA_OF_ASC_NODE":"26.6113","DECAY_DATE":null,"TLE_LINE1":"1 54086U 22136AM  23107.16986855  .00001101  00000-0  87205-4 0  9997","MEAN_MOTION_DOT":"0.00001101","TLE_LINE2":"2 54086  53.2181  26.6113 0001279 108.9694 251.1437 15.08850418 27541","APOAPSIS":"540.598","MEAN_MOTION":"15.08850418","CENTER_NAME":"EARTH","CLASSIFICATION_TYPE":"U","ELEMENT_SET_NO":"999","SEMIMAJOR_AXIS":"6917.849","EPHEMERIS_TYPE":"0","MEAN_MOTION_DDOT":"0.0000000000000","EPOCH":"2023-04-17T04:04:36.642720","LAUNCH_DATE":"2022-10-20","INCLINATION":"53.2181","REV_AT_EPOCH":"2754","ARG_OF_PERICENTER":"108.9694","PERIOD":"95.437","RCS_SIZE":"LARGE"},{"MEAN_MOTION_DOT":"0.00000166","TLE_LINE1":"1 54087U 22136AN  23107.82536729  .00000166  00000-0  28502-4 0  9997","CENTER_NAME":"EARTH","MEAN_MOTION":"15.08841104","APOAPSIS":"540.291","TLE_LINE2":"2 54087  53.2185  38.5551 0000794  80.4094 279.6988 15.08841104 27439","EPHEMERIS_TYPE":"0","SEMIMAJOR_AXIS":"6917.877","ELEMENT_SET_NO":"999","CLASSIFICATION_TYPE":"U","PERIOD":"95.437","RCS_SIZE":"LARGE","REV_AT_EPOCH":"2743","ARG_OF_PERICENTER":"80.4094","INCLINATION":"53.2185","LAUNCH_DATE":"2022-10-20","MEAN_MOTION_DDOT":"0.0000000000000","EPOCH":"2023-04-17T19:48:31.733856","COUNTRY_CODE":"US","TIME_SYSTEM":"UTC","MEAN_ELEMENT_THEORY":"SGP4","OBJECT_ID":"2022-136AN","BSTAR":"0.00002850200000","MEAN_ANOMALY":"279.6988","PERIAPSIS":"539.193","ECCENTRICITY":"0.00007940","FILE":"3889391","GP_ID":"230267718","OBJECT_NAME":"STARLINK-5184","REF_FRAME":"TEME","NORAD_CAT_ID":"54087","OBJECT_TYPE":"PAYLOAD","SITE":"AFETR","DECAY_DATE":null,"RA_OF_ASC_NODE":"38.5551"},{"BSTAR":"0.00015086000000","OBJECT_ID":"2022-136AP","MEAN_ELEMENT_THEORY":"SGP4","COUNTRY_CODE":"US","TIME_SYSTEM":"UTC","ECCENTRICITY":"0.00011900","PERIAPSIS":"538.926","MEAN_ANOMALY":"269.3917","OBJECT_TYPE":"PAYLOAD","SITE":"AFETR","NORAD_CAT_ID":"54088","REF_FRAME":"TEME","OBJECT_NAME":"STARLINK-5153","FILE":"3889391","GP_ID":"230266968","RA_OF_ASC_NODE":"38.6246","DECAY_DATE":null,"TLE_LINE1":"1 54088U 22136AP  23107.83641616  .00002114  00000-0  15086-3 0  9998","MEAN_MOTION_DOT":"0.00002114","APOAPSIS":"540.573","TLE_LINE2":"2 54088  53.2184  38.6246 0001190  90.7211 269.3917 15.08838702 27435","MEAN_MOTION":"15.08838702","CENTER_NAME":"EARTH","CLASSIFICATION_TYPE":"U","ELEMENT_SET_NO":"999","SEMIMAJOR_AXIS":"6917.884","EPHEMERIS_TYPE":"0","EPOCH":"2023-04-17T20:04:26.356224","MEAN_MOTION_DDOT":"0.0000000000000","INCLINATION":"53.2184","LAUNCH_DATE":"2022-10-20","REV_AT_EPOCH":"2743","ARG_OF_PERICENTER":"90.7211","PERIOD":"95.438","RCS_SIZE":"LARGE"},{"OBJECT_ID":"2022-136AQ","BSTAR":"0.00005747200000","COUNTRY_CODE":"US","TIME_SYSTEM":"UTC","MEAN_ELEMENT_THEORY":"SGP4","PERIAPSIS":"538.910","ECCENTRICITY":"0.00011990","MEAN_ANOMALY":"284.8613","REF_FRAME":"TEME","NORAD_CAT_ID":"54089","OBJECT_TYPE":"PAYLOAD","SITE":"AFETR","FILE":"3889391","GP_ID":"230267218","OBJECT_NAME":"STARLINK-5143","DECAY_DATE":null,"RA_OF_ASC_NODE":"38.4846","TLE_LINE1":"1 54089U 22136AQ  23107.81431056  .00000627  00000-0  57472-4 0  9995","MEAN_MOTION_DOT":"0.00000627","MEAN_MOTION":"15.08841798","TLE_LINE2":"2 54089  53.2185  38.4846 0001199  75.2512 284.8613 15.08841798 27436","APOAPSIS":"540.569","CENTER_NAME":"EARTH","ELEMENT_SET_NO":"999","CLASSIFICATION_TYPE":"U","EPHEMERIS_TYPE":"0","SEMIMAJOR_AXIS":"6917.875","ARG_OF_PERICENTER":"75.2512","REV_AT_EPOCH":"2743","LAUNCH_DATE":"2022-10-20","INCLINATION":"53.2185","EPOCH":"2023-04-17T19:32:36.432384","MEAN_MOTION_DDOT":"0.0000000000000","PERIOD":"95.437","RCS_SIZE":"LARGE"},{"MEAN_MOTION_DOT":"-0.00000185","TLE_LINE1":"1 54090U 22136AR  23107.81799401 -.00000185  00000-0  64500-5 0  9999","CENTER_NAME":"EARTH","APOAPSIS":"540.672","TLE_LINE2":"2 54090  53.2193  38.5043 0001353 101.6561 258.4583 15.08842911 27438","MEAN_MOTION":"15.08842911","SEMIMAJOR_AXIS":"6917.871","EPHEMERIS_TYPE":"0","CLASSIFICATION_TYPE":"U","ELEMENT_SET_NO":"999","PERIOD":"95.437","RCS_SIZE":"LARGE","EPOCH":"2023-04-17T19:37:54.682464","MEAN_MOTION_DDOT":"0.0000000000000","INCLINATION":"53.2193","LAUNCH_DATE":"2022-10-20","REV_AT_EPOCH":"2743","ARG_OF_PERICENTER":"101.6561","MEAN_ELEMENT_THEORY":"SGP4","COUNTRY_CODE":"US","TIME_SYSTEM":"UTC","BSTAR":"0.00000645000000","OBJECT_ID":"2022-136AR","MEAN_ANOMALY":"258.4583","ECCENTRICITY":"0.00013530","PERIAPSIS":"538.801","OBJECT_NAME":"STARLINK-5177","FILE":"3889391","GP_ID":"230267469","SITE":"AFETR","OBJECT_TYPE":"PAYLOAD","NORAD_CAT_ID":"54090","REF_FRAME":"TEME","RA_OF_ASC_NODE":"38.5043","DECAY_DATE":null},{"MEAN_ELEMENT_THEORY":"SGP4","COUNTRY_CODE":"US","TIME_SYSTEM":"UTC","BSTAR":"0.00016021000000","OBJECT_ID":"2022-136AS","MEAN_ANOMALY":"262.3086","ECCENTRICITY":"0.00012360","PERIAPSIS":"538.880","FILE":"3889391","GP_ID":"230268219","OBJECT_NAME":"STARLINK-5221","NORAD_CAT_ID":"54091","REF_FRAME":"TEME","OBJECT_TYPE":"PAYLOAD","SITE":"AFETR","RA_OF_ASC_NODE":"38.4244","DECAY_DATE":null,"MEAN_MOTION_DOT":"0.00002263","TLE_LINE1":"1 54091U 22136AS  23107.80421552  .00002263  00000-0  16021-3 0  9999","CENTER_NAME":"EARTH","MEAN_MOTION":"15.08843321","TLE_LINE2":"2 54091  53.2184  38.4244 0001236  97.8047 262.3086 15.08843321 27434","APOAPSIS":"540.590","SEMIMAJOR_AXIS":"6917.870","EPHEMERIS_TYPE":"0","ELEMENT_SET_NO":"999","CLASSIFICATION_TYPE":"U","PERIOD":"95.437","RCS_SIZE":"LARGE","ARG_OF_PERICENTER":"97.8047","REV_AT_EPOCH":"2743","EPOCH":"2023-04-17T19:18:04.220928","MEAN_MOTION_DDOT":"0.0000000000000","LAUNCH_DATE":"2022-10-20","INCLINATION":"53.2184"},{"GP_ID":"230266468","FILE":"3889391","OBJECT_NAME":"STARLINK-5190","NORAD_CAT_ID":"54092","REF_FRAME":"TEME","SITE":"AFETR","OBJECT_TYPE":"PAYLOAD","DECAY_DATE":null,"RA_OF_ASC_NODE":"38.5265","MEAN_ELEMENT_THEORY":"SGP4","COUNTRY_CODE":"US","TIME_SYSTEM":"UTC","BSTAR":"0.00000047078000","OBJECT_ID":"2022-136AT","MEAN_ANOMALY":"252.6500","PERIAPSIS":"538.872","ECCENTRICITY":"0.00012440","SEMIMAJOR_AXIS":"6917.867","EPHEMERIS_TYPE":"0","ELEMENT_SET_NO":"999","CLASSIFICATION_TYPE":"U","PERIOD":"95.437","RCS_SIZE":"LARGE","ARG_OF_PERICENTER":"107.4628","REV_AT_EPOCH":"2743","EPOCH":"2023-04-17T19:43:12.915264","MEAN_MOTION_DDOT":"0.0000000000000","LAUNCH_DATE":"2022-10-20","INCLINATION":"53.2182","MEAN_MOTION_DOT":"-0.00000280","TLE_LINE1":"1 54092U 22136AT  23107.82167726 -.00000280  00000-0  47078-6 0  9999","CENTER_NAME":"EARTH","MEAN_MOTION":"15.08844320","TLE_LINE2":"2 54092  53.2182  38.5265 0001244 107.4628 252.6500 15.08844320 27432","APOAPSIS":"540.593"},{"MEAN_MOTION_DOT":"0.00003410","TLE_LINE1":"1 54093U 22136AU  23107.80325951  .00003410  00000-0  23217-3 0  9997","CENTER_NAME":"EARTH","APOAPSIS":"540.443","TLE_LINE2":"2 54093  53.2182  38.4187 0001055  94.1102 266.0011 15.08850456 27437","MEAN_MOTION":"15.08850456","SEMIMAJOR_AXIS":"6917.848","EPHEMERIS_TYPE":"0","CLASSIFICATION_TYPE":"U","ELEMENT_SET_NO":"999","RCS_SIZE":"LARGE","PERIOD":"95.437","EPOCH":"2023-04-17T19:16:41.621664","MEAN_MOTION_DDOT":"0.0000000000000","INCLINATION":"53.2182","LAUNCH_DATE":"2022-10-20","ARG_OF_PERICENTER":"94.1102","REV_AT_EPOCH":"2743","MEAN_ELEMENT_THEORY":"SGP4","TIME_SYSTEM":"UTC","COUNTRY_CODE":"US","BSTAR":"0.00023217000000","OBJECT_ID":"2022-136AU","MEAN_ANOMALY":"266.0011","ECCENTRICITY":"0.00010550","PERIAPSIS":"538.984","OBJECT_NAME":"STARLINK-5213","FILE":"3889391","GP_ID":"230266718","SITE":"AFETR","OBJECT_TYPE":"PAYLOAD","NORAD_CAT_ID":"54093","REF_FRAME":"TEME","RA_OF_ASC_NODE":"38.4187","DECAY_DATE":null},{"MEAN_MOTION":"15.08847693","TLE_LINE2":"2 54094  53.2180  41.1366 0001148 100.0515 260.0606 15.08847693 27347","APOAPSIS":"540.516","CENTER_NAME":"EARTH","TLE_LINE1":"1 54094U 22136AV  23107.21446179 -.00000428  00000-0 -87818-5 0  9996","MEAN_MOTION_DOT":"-0.00000428","REV_AT_EPOCH":"2734","ARG_OF_PERICENTER":"100.0515","LAUNCH_DATE":"2022-10-20","INCLINATION":"53.2180","MEAN_MOTION_DDOT":"0.0000000000000","EPOCH":"2023-04-17T05:08:49.498656","PERIOD":"95.437","RCS_SIZE":"LARGE","ELEMENT_SET_NO":"999","CLASSIFICATION_TYPE":"U","EPHEMERIS_TYPE":"0","SEMIMAJOR_AXIS":"6917.857","PERIAPSIS":"538.928","ECCENTRICITY":"0.00011480","MEAN_ANOMALY":"260.0606","OBJECT_ID":"2022-136AV","BSTAR":"-0.00000878180000","COUNTRY_CODE":"US","TIME_SYSTEM":"UTC","MEAN_ELEMENT_THEORY":"SGP4","RA_OF_ASC_NODE":"41.1366","DECAY_DATE":null,"REF_FRAME":"TEME","NORAD_CAT_ID":"54094","SITE":"AFETR","OBJECT_TYPE":"PAYLOAD","FILE":"3889215","GP_ID":"230235828","OBJECT_NAME":"STARLINK-5219"}];
